USA 159 (DSP 21)        
1 26880U 01033A   21120.41072358 -.00000306  00000-0  00000-0 0  9997
2 26880  11.0581  28.3331 0000498 276.4114  12.5607  1.00276120 14171
INTELSAT 902 (IS-902)   
1 26900U 01039A   21120.45841692 -.00000291  00000-0  00000-0 0  9998
2 26900   1.3834  93.3528 0003473 324.2701 275.9362  1.00271891 71904
USA 164 (MILSTAR-2 3)   
1 27168U 02001A   21120.66683611  .00000091  00000-0  00000+0 0  9999
2 27168   9.0868  30.6614 0002126  30.7600  56.3819  1.00271204 12860
ECHOSTAR 7              
1 27378U 02006A   21120.57546801 -.00000009  00000-0  00000-0 0  9997
2 27378   0.0123 285.5000 0002689  69.8959 311.7016  1.00270399 31819
INTELSAT 904 (IS-904)   
1 27380U 02007A   21120.39072187 -.00000222  00000-0  00000-0 0  9999
2 27380   2.2206  90.1463 0003713 320.6192 278.9484  1.00270966 32978
TDRS 9                  
1 27389U 02011A   21120.44765900 -.00000295  00000-0  00000-0 0  9991
2 27389   8.1519  64.5424 0025805 292.1905 320.8440  1.00272364 71653
ASTRA 3A                
1 27400U 02015B   21120.58245559 -.00000212  00000-0  00000-0 0  9996
2 27400   6.5543  61.7166 0001827 348.0196 291.9316  1.00270758 69932
NSS-7                   
1 27414U 02019A   21120.24905080 -.00000165  00000-0  00000-0 0  9997
2 27414   4.9505  74.4914 0002553 332.8411 240.7230  1.00271529 69773
DIRECTV 5 (TEMPO 1)     
1 27426U 02023A   21120.58108997 -.00000065  00000-0  00000-0 0  9993
2 27426   0.1016  95.7651 0003583 315.3075 266.7461  1.00272128 69333
INTELSAT 905 (IS-905)   
1 27438U 02027A   21120.39176872 -.00000193  00000-0  00000-0 0  9998
2 27438   2.0417  90.9545 0002899 310.9672 293.1735  1.00271427 32579
GALAXY 3C (G-3C)        
1 27445U 02030A   21120.46575431 -.00000160  00000-0  00000-0 0  9996
2 27445   0.0209 293.2708 0001783  49.4927 308.4780  1.00274356 27715
EUTELSAT 5 WEST A       
1 27460U 02035A   21120.32389919 -.00000050  00000-0  00000-0 0  9995
2 27460   1.3156  93.6695 0006197 305.8077 290.6156  1.00271879 68826
METEOSAT-8 (MSG-1)      
1 27509U 02040B   21119.97425170  .00000128  00000-0  00000-0 0  9999
2 27509   7.2884  52.7016 0002203 327.7225 229.9934  1.00278273 68462
INTELSAT 906 (IS-906)   
1 27513U 02041A   21120.55298062  .00000005  00000-0  00000-0 0  9993
2 27513   1.0488  95.1924 0003089 302.3060  84.4394  1.00271408 68240
HISPASAT 30W-4          
1 27528U 02044A   21120.62583653  .00000108  00000-0  00000-0 0  9997
2 27528   1.8333  90.9740 0006465 319.4780 250.6220  1.00270080 24186
TDRS 10                 
1 27566U 02055A   21120.60339038  .00000081  00000-0  00000-0 0  9995
2 27566   7.4637  52.1200 0011611 318.7263 253.9577  1.00273074 67448
NSS-6                   
1 27603U 02057A   21120.60570625  .00000099  00000-0  00000-0 0  9997
2 27603   0.5849  96.0604 0004403 306.1516 225.0833  1.00272942 67254
NIMIQ 2                 
1 27632U 02062A   21119.35397959 -.00000294  00000-0  00000+0 0  9999
2 27632   5.0628  73.6219 0011446  89.2575 270.7673  1.00664942 67077
USA 167                 
1 27691U 03008A   21120.56762597  .00000045  00000-0  00000-0 0  9998
2 27691   7.2477  57.1024 0004840   2.8279 233.3087  1.00274770 14163
USA 169 (MILSTAR-2 4)   
1 27711U 03012A   21120.57716407 -.00000204  00000-0  00000-0 0  9994
2 27711   9.5192  42.8341 0002720   3.7926 172.0253  1.00272373 14163
GALAXY 12 (G-12)        
1 27715U 03013B   21120.56884848  .00000050  00000-0  00000-0 0  9991
2 27715   2.2561  89.6267 0002239 321.7432 243.1318  1.00271493 33304
ASIASAT 4               
1 27718U 03014A   21120.54783372  .00000144  00000-0  00000-0 0  9997
2 27718   0.0060 226.4698 0003029 187.3871  40.2724  1.00274005 26500
HELLAS-SAT 2            
1 27811U 03020A   21120.52122676 -.00000159  00000-0  00000-0 0  9997
2 27811   2.6740  88.8772 0003235 305.4516 276.7987  1.00271561 24057
THURAYA-2               
1 27825U 03026A   21120.02890170  .00000120  00000-0  00000-0 0  9991
2 27825   6.2503  33.7816 0004793 355.6520 243.1538  1.00271977 65550
OPTUS C1                
1 27831U 03028B   21120.60031542 -.00000159  00000-0  00000-0 0  9997
2 27831   2.1832  90.8608 0006228 316.6752 183.0540  1.00270464 34279
GALAXY 23 (G-23)        
1 27854U 03034A   21120.57358977  .00000004  00000-0  00000-0 0  9997
2 27854   0.0292 265.5031 0002974 139.9197 258.8136  1.00273712 64954
USA 170                 
1 27875U 03040A   21120.36050152 -.00000281  00000-0  00000-0 0  9996
2 27875   6.5302  62.5393 0003018   5.7378 237.4281  1.00275207 14171
GALAXY 13 (HORIZONS 1)  
1 27954U 03044A   21120.56983637  .00000039  00000-0  00000-0 0  9993
2 27954   0.0152 282.4976 0000932  62.7570 311.6033  1.00271632 27789
YAMAL 202               
1 28089U 03053A   21120.64438731 -.00000088  00000-0  00000+0 0  9996
2 28089   1.6137  92.1907 0006140 328.5184 193.5790  1.00271222 63894
UFO 11 (USA 174)        
1 28117U 03057A   21120.02259993 -.00000105  00000-0  00000-0 0  9996
2 28117   6.4387  37.7922 0006562   4.4052 259.0556  1.00271149 63650
USA 176 (DSP 22)        
1 28158U 04004A   21120.01647147 -.00000227  00000-0  00000-0 0  9990
2 28158   9.5654  37.5188 0001167  62.7099 211.1893  1.00274669 14134
ABS-4 (MOBISAT-1)       
1 28184U 04007A   21120.55236998  .00000032  00000-0  00000-0 0  9992
2 28184   1.2978  93.4734 0005555 312.0967  72.9751  1.00270823 33550
EUTELSAT 7A             
1 28187U 04008A   21120.56133253  .00000096  00000-0  00000-0 0  9997
2 28187   1.0911  90.9334 0004962 326.5212 224.1297  1.00272724 62561
AMC-11 (GE-11)          
1 28252U 04017A   21120.56703516  .00000060  00000-0  00000-0 0  9996
2 28252   0.0447  76.7110 0002815 339.1460 236.0034  1.00273227 62099
INTELSAT 10-02          
1 28358U 04022A   21120.32468432 -.00000019  00000-0  00000-0 0  9993
2 28358   0.0556  83.5594 0001275 336.5815 274.2303  1.00273808 61809
ANIK F2                 
1 28378U 04027A   21120.58108975 -.00000059  00000-0  00000-0 0  9995
2 28378   0.0173 284.9197 0000353 186.3518 205.5769  1.00270530 22482
AMC-15                  
1 28446U 04041A   21120.55739875 -.00000098  00000-0  00000-0 0  9996
2 28446   0.0507  74.3641 0002854 336.3144 263.6357  1.00271281 60534
AMC-16                  
1 28472U 04048A   21120.47227399 -.00000215  00000-0  00000-0 0  9997
2 28472   0.0492  77.6068 0002887 336.2926 249.7421  1.00271846 59901
NSS-10 (AMC-12)         
1 28526U 05003A   21120.46094677 -.00000259  00000-0  00000-0 0  9997
2 28526   1.7745  91.5129 0003156 310.2327 305.3601  1.00271124 34361
XTAR-EUR                
1 28542U 05005A   21120.31265196  .00000142  00000-0  00000-0 0  9997
2 28542   0.0352  90.7055 0002743 308.0709 321.2451  1.00272683 59395
XM-3 (RHYTHM)           
1 28626U 05008A   21120.52323319 -.00000214  00000-0  00000-0 0  9999
2 28626   0.0166 266.9273 0002582 184.2782 230.6777  1.00271754 23838
INMARSAT 4-F1           
1 28628U 05009A   21120.57095333 -.00000270  00000-0  00000-0 0  9991
2 28628   3.3428  30.5579 0003422  23.0200 154.1832  1.00270950 58882
DIRECTV 8               
1 28659U 05019A   21120.57546775 -.00000008  00000-0  00000+0 0  9995
2 28659   0.0148 263.6163 0003189 151.5825 251.6431  1.00271082 58398
GALAXY 28 (G-28)        
1 28702U 05022A   21120.52244807 -.00000194  00000-0  00000-0 0  9991
2 28702   0.0062 283.3317 0002634  83.5324 310.8901  1.00272234 33195
EXPRESS-AM3             
1 28707U 05023A   21120.21646738  .00000127  00000-0  00000+0 0  9996
2 28707   2.5627  87.6149 0001060 176.5736  55.1383  1.00274849 58042
THAICOM 4               
1 28786U 05028A   21120.42046931 -.00000372  00000-0  00000-0 0  9994
2 28786   0.0123 264.2338 0002883 140.3737  84.8574  1.00272020 33470
GALAXY 14 (G-14)        
1 28790U 05030A   21120.45684668 -.00000292  00000-0  00000-0 0  9991
2 28790   0.2374  93.9153 0003485 289.3353 301.9354  1.00518126 57514
ANIK F1R                
1 28868U 05036A   21120.45975167 -.00000083  00000-0  00000-0 0  9998
2 28868   0.0487  73.1561 0003385 327.6069 236.0592  1.00272100 27669
GALAXY 15 (G-15)        
1 28884U 05041A   21120.60845642  .00000070  00000-0  00000-0 0  9998
2 28884   0.0149 276.0768 0001812 127.3983 261.3344  1.00270499 56834
SYRACUSE 3A             
1 28885U 05041B   21120.54957844  .00000119  00000-0  00000-0 0  9994
2 28885   0.1023  96.8051 0003982 308.9021  57.8717  1.00268975 56962
INMARSAT 4-F2           
1 28899U 05044A   21120.55298062  .00000001  00000-0  00000-0 0  9993
2 28899   3.2130  33.2400 0003076  23.5570  64.8776  1.00272696 56739
TELKOM 2                
1 28902U 05046A   21120.58104795 -.00000147  00000-0  00000+0 0  9993
2 28902   0.0036 244.4884 0000943 111.9935 228.4586  1.00271714 56459
SPACEWAY 2              
1 28903U 05046B   21120.56133174  .00000095  00000-0  00000+0 0  9996
2 28903   0.9456  91.7146 0000530 241.2221 308.9458  1.00270002 56705
METEOSAT-9 (MSG-2)      
1 28912U 05049B   21120.18196642  .00000009  00000-0  00000-0 0  9992
2 28912   5.1082  68.6706 0000957 288.5067 290.1277  1.00266417 56242
EUTELSAT 174A           
1 28924U 05052A   21120.59275272  .00000000  00000-0  00000-0 0  9992
2 28924   0.0586  12.9974 0006439  32.9748 200.1594  1.00270215 33547
ECHOSTAR 10             
1 28935U 06003A   21120.58108993 -.00000065  00000-0  00000-0 0  9997
2 28935   0.0132 268.3209 0001416 170.2035 239.1969  1.00272431 55688
SPAINSAT                
1 28945U 06007A   21120.47599559 -.00000225  00000-0  00000+0 0  9999
2 28945   0.0176 225.3571 0002271 168.8282 325.8306  1.00273875 55444
EUTELSAT HOT BIRD 13E   
1 28946U 06007B   21120.54277404  .00000078  00000-0  00000-0 0  9996
2 28946   0.0464 234.2980 0003894 210.7686 342.0242  1.00271849 55512
JCSAT-5A                
1 29045U 06010A   21120.56650219 -.00000337  00000-0  00000-0 0  9991
2 29045   0.0510  97.3151 0002133 322.9591 134.4289  1.00273844 54979
